KAZSTSAT                
1 43783U 18099AB  26068.61895971  .00001354  00000+0  11446-3 0  9991
2 43783  97.4396 105.0128 0006528  11.1145 349.0222 14.99620503396386
STARLINK-4320           
1 53059U 22077S   26068.48197990 -.00000435  00000+0 -29317-4 0  9998
2 53059  97.6005 250.0100 0000436 138.2280 221.8978 15.01260038200887
